$$SOE
2459580.500000000, A.D. 2022-Jan-01 00:00:00.0000, 5.395452327179908E+07, 4.489818705231572E+08, -7.543079940019821E+07,
2459587.500000000, A.D. 2022-Jan-08 00:00:00.0000, 4.364796231843620E+07, 4.499654121896192E+08, -7.548796659419510E+07,
2459594.500000000, A.D. 2022-Jan-15 00:00:00.0000, 3.331935211342727E+07, 4.507220760903462E+08, -7.550707098524787E+07,
2459601.500000000, A.D. 2022-Jan-22 00:00:00.0000, 2.297389077154558E+07, 4.512513006941866E+08, -7.548807332656638E+07,
2459608.500000000, A.D. 2022-Jan-29 00:00:00.0000, 1.261679393822564E+07, 4.515526452944815E+08, -7.543095418035178E+07,
2459615.500000000, A.D. 2022-Feb-05 00:00:00.0000, 2.253289686608178E+06, 4.516257899429570E+08, -7.533571383922635E+07,
2459622.500000000, A.D. 2022-Feb-12 00:00:00.0000, -8.111384440039719E+06, 4.514705342432008E+08, -7.520237252055243E+07,
2459629.500000000, A.D. 2022-Feb-19 00:00:00.0000, -1.847198356138488E+07, 4.510867973735319E+08, -7.503097051937960E+07,
2459636.500000000, A.D. 2022-Feb-26 00:00:00.0000, -2.882325807622186E+07, 4.504746186140060E+08, -7.482156825858223E+07,
2459643.500000000, A.D. 2022-Mar-05 00:00:00.0000, -3.915995660020390E+07, 4.496341577582650E+08, -7.457424630079381E+07,
2459650.500000000, A.D. 2022-Mar-12 00:00:00.0000, -4.947682900123917E+07, 4.485656953429437E+08, -7.428910534770671E+07,
2459657.500000000, A.D. 2022-Mar-19 00:00:00.0000, -5.976862945933809E+07, 4.472696327215721E+08, -7.396626623097599E+07,
2459664.500000000, A.D. 2022-Mar-26 00:00:00.0000, -7.003011952624469E+07, 4.457464919761631E+08, -7.360586989733027E+07,
2459671.500000000, A.D. 2022-Apr-02 00:00:00.0000, -8.025607111471856E+07, 4.439969156099184E+08, -7.320807739874135E+07,
2459678.500000000, A.D. 2022-Apr-09 00:00:00.0000, -9.044126914312784E+07, 4.420216660252802E+08, -7.277306991226460E+07,
2459685.500000000, A.D. 2022-Apr-16 00:00:00.0000, -1.005805134761720E+08, 4.398216254412897E+08, -7.230104876904163E+07,
2459692.500000000, A.D. 2022-Apr-23 00:00:00.0000, -1.106686214281797E+08, 4.373977973354818E+08, -7.179223528802195E+07,
2459699.500000000, A.D. 2022-Apr-30 00:00:00.0000, -1.207004326949418E+08, 4.347513071648158E+08, -7.124687042641771E+07,
2459706.500000000, A.D. 2022-May-07 00:00:00.0000, -1.306708136484701E+08, 4.318834003891112E+08, -7.066521468805774E+07,
2459713.500000000, A.D. 2022-May-14 00:00:00.0000, -1.405746596048095E+08, 4.287954408355312E+08, -7.004754816900338E+07,
2459720.500000000, A.D. 2022-May-21 00:00:00.0000, -1.504068970932297E+08, 4.254889101649314E+08, -6.939417049294680E+07,
2459727.500000000, A.D. 2022-May-28 00:00:00.0000, -1.601624866019708E+08, 4.219654074813214E+08, -6.870540067079227E+07,
2459734.500000000, A.D. 2022-Jun-04 00:00:00.0000, -1.698364255205425E+08, 4.182266487712591E+08, -6.798157693519852E+07,
2459741.500000000, A.D. 2022-Jun-11 00:00:00.0000, -1.794237511312732E+08, 4.142744661755295E+08, -6.722305656312250E+07,
2459748.500000000, A.D. 2022-Jun-18 00:00:00.0000, -1.889195436087470E+08, 4.101108071068881E+08, -6.643021568884459E+07,
2459755.500000000, A.D. 2022-Jun-25 00:00:00.0000, -1.983189289949760E+08, 4.057377331813468E+08, -6.560344911290300E+07,
2459762.500000000, A.D. 2022-Jul-02 00:00:00.0000, -2.076170820135526E+08, 4.011574188979443E+08, -6.474317012458964E+07,
2459769.500000000, A.D. 2022-Jul-09 00:00:00.0000, -2.168092283299595E+08, 3.963721502446396E+08, -6.384981035930757E+07,
2459776.500000000, A.D. 2022-Jul-16 00:00:00.0000, -2.258906463112433E+08, 3.913843243141904E+08, -6.292381959737833E+07,
2459783.500000000, A.D. 2022-Jul-23 00:00:00.0000, -2.348566704815527E+08, 3.861964500101038E+08, -6.196566529685499E+07,
2459790.500000000, A.D. 2022-Jul-30 00:00:00.0000, -2.437026965854486E+08, 3.808111464903392E+08, -6.097583214214969E+07,
2459797.500000000, A.D. 2022-Aug-06 00:00:00.0000, -2.524241846568885E+08, 3.752311399956337E+08, -5.995482188471919E+07,
2459804.500000000, A.D. 2022-Aug-13 00:00:00.0000, -2.610166609167222E+08, 3.694592618182562E+08, -5.890315317553909E+07,
2459811.500000000, A.D. 2022-Aug-20 00:00:00.0000, -2.694757200659842E+08, 3.634984469114071E+08, -5.782136128734198E+07,
2459818.500000000, A.D. 2022-Aug-27 00:00:00.0000, -2.777970279029506E+08, 3.573517324147617E+08, -5.670999779223442E+07,
2459825.500000000, A.D. 2022-Sep-03 00:00:00.0000, -2.859763240120142E+08, 3.510222559864832E+08, -5.556963022607541E+07,
2459832.500000000, A.D. 2022-Sep-10 00:00:00.0000, -2.940094244304994E+08, 3.445132539657943E+08, -5.440084174542329E+07,
2459839.500000000, A.D. 2022-Sep-17 00:00:00.0000, -3.018922242610389E+08, 3.378280593640648E+08, -5.320423077948721E+07,
2459846.500000000, A.D. 2022-Sep-24 00:00:00.0000, -3.096207001674365E+08, 3.309700996335123E+08, -5.198041068679874E+07,
2459853.500000000, A.D. 2022-Oct-01 00:00:00.0000, -3.171909125134413E+08, 3.239428941923796E+08, -5.073000944106442E+07,
2459860.500000000, A.D. 2022-Oct-08 00:00:00.0000, -3.245990067367380E+08, 3.167500522310860E+08, -4.945366934194127E+07,
2459867.500000000, A.D. 2022-Oct-15 00:00:00.0000, -3.318412148895937E+08, 3.093952720019423E+08, -4.815204656856591E+07,
2459874.500000000, A.D. 2022-Oct-22 00:00:00.0000, -3.389138595268273E+08, 3.018823399131851E+08, -4.682581051476203E+07,
2459881.500000000, A.D. 2022-Oct-29 00:00:00.0000, -3.458133574393730E+08, 2.942151268374568E+08, -4.547564334751959E+07,
2459888.500000000, A.D. 2022-Nov-05 00:00:00.0000, -3.525362211300316E+08, 2.863975843759071E+08, -4.410223975700648E+07,
2459895.500000000, A.D. 2022-Nov-12 00:00:00.0000, -3.590790599956780E+08, 2.784337423462487E+08, -4.270630661496288E+07,
2459902.500000000, A.D. 2022-Nov-19 00:00:00.0000, -3.654385819344959E+08, 2.703277065438660E+08, -4.128856255440464E+07,
2459909.500000000, A.D. 2022-Nov-26 00:00:00.0000, -3.716115951139721E+08, 2.620836563812342E+08, -3.984973752762372E+07,
2459916.500000000, A.D. 2022-Dec-03 00:00:00.0000, -3.775950097317384E+08, 2.537058423960893E+08, -3.839057235897761E+07,
2459923.500000000, A.D. 2022-Dec-10 00:00:00.0000, -3.833858397222743E+08, 2.451985836490841E+08, -3.691181829548623E+07,
2459930.500000000, A.D. 2022-Dec-17 00:00:00.0000, -3.889812043835191E+08, 2.365662649881766E+08, -3.541423655994639E+07,
2459937.500000000, A.D. 2022-Dec-24 00:00:00.0000, -3.943783298128588E+08, 2.278133341162834E+08, -3.389859792236761E+07,
2459944.500000000, A.D. 2022-Dec-31 00:00:00.0000, -3.995745497936947E+08, 2.189442985720634E+08, -3.236568231410113E+07,
2459951.500000000, A.D. 2023-Jan-07 00:00:00.0000, -4.045673060088761E+08, 2.099637235883668E+08, -3.081627841761307E+07,
2459958.500000000, A.D. 2023-Jan-14 00:00:00.0000, -4.093541495480960E+08, 2.008762313274399E+08, -2.925118301141464E+07,
2459965.500000000, A.D. 2023-Jan-21 00:00:00.0000, -4.139327443548549E+08, 1.916864983240080E+08, -2.767120027103730E+07,
2459972.500000000, A.D. 2023-Jan-28 00:00:00.0000, -4.183008689432211E+08, 1.823992509446554E+08, -2.607714137864745E+07,
2459979.500000000, A.D. 2023-Feb-04 00:00:00.0000, -4.224564165903813E+08, 1.730192618925908E+08, -2.446982417456948E+07,
2459986.500000000, A.D. 2023-Feb-11 00:00:00.0000, -4.263973958007013E+08, 1.635513475659819E+08, -2.285007270234429E+07,
2459993.500000000, A.D. 2023-Feb-18 00:00:00.0000, -4.301219311052302E+08, 1.540003654504151E+08, -2.121871670939239E+07,
2460000.500000000, A.D. 2023-Feb-25 00:00:00.0000, -4.336282639329953E+08, 1.443712113873573E+08, -1.957659114085434E+07,
2460007.500000000, A.D. 2023-Mar-04 00:00:00.0000, -4.369147534505166E+08, 1.346688167403063E+08, -1.792453563455690E+07,
2460014.500000000, A.D. 2023-Mar-11 00:00:00.0000, -4.399798773397568E+08, 1.248981454615078E+08, -1.626339401982573E+07,
2460021.500000000, A.D. 2023-Mar-18 00:00:00.0000, -4.428222324667587E+08, 1.150641910118543E+08, -1.459401382870995E+07,
2460028.500000000, A.D. 2023-Mar-25 00:00:00.0000, -4.454405352375500E+08, 1.051719730887675E+08, -1.291724584238797E+07,
2460035.500000000, A.D. 2023-Apr-01 00:00:00.0000, -4.478336212171752E+08, 9.522653455751330E+07, -1.123394367984547E+07,
2460042.500000000, A.D. 2023-Apr-08 00:00:00.0000, -4.500004446281520E+08, 8.523293981294805E+07, -9.544963272624653E+06,
2460049.500000000, A.D. 2023-Apr-15 00:00:00.0000, -4.519400800677592E+08, 7.519627346776600E+07, -7.851162102199487E+06,
2460056.500000000, A.D. 2023-Apr-22 00:00:00.0000, -4.536517246382567E+08, 6.512163631916734E+07, -6.153398615875907E+06,
2460063.500000000, A.D. 2023-Apr-29 00:00:00.0000, -4.551346977553526E+08, 5.501414085155268E+07, -4.452531888105616E+06,
2460070.500000000, A.D. 2023-May-06 00:00:00.0000, -4.563884403936666E+08, 4.487890805931834E+07, -2.749421220270969E+06,
2460077.500000000, A.D. 2023-May-13 00:00:00.0000, -4.574125147461081E+08, 3.472106469853403E+07, -1.044925662803795E+06,
2460084.500000000, A.D. 2023-May-20 00:00:00.0000, -4.582066040631974E+08, 2.454574047942901E+07, 6.600964782535117E+05,
2460091.500000000, A.D. 2023-May-27 00:00:00.0000, -4.587705124778937E+08, 1.435806517261597E+07, 2.364788129643869E+06,
2460098.500000000, A.D. 2023-Jun-03 00:00:00.0000, -4.591041647577761E+08, 4.163165656019332E+06, 4.068293930504403E+06,
2460105.500000000, A.D. 2023-Jun-10 00:00:00.0000, -4.592076059620085E+08, -6.033837110781707E+06, 5.769760699112700E+06,
2460112.500000000, A.D. 2023-Jun-17 00:00:00.0000, -4.590810009168231E+08, -1.622783124373036E+07, 7.468337872882164E+06,
2460119.500000000, A.D. 2023-Jun-24 00:00:00.0000, -4.587246331925721E+08, -2.641371716508958E+07, 9.163177896111172E+06,
2460126.500000000, A.D. 2023-Jul-01 00:00:00.0000, -4.581389033312956E+08, -3.658641007686505E+07, 1.085343659942294E+07,
2460133.500000000, A.D. 2023-Jul-08 00:00:00.0000, -4.573243279999111E+08, -4.674084085232343E+07, 1.253827379117953E+07,
2460140.500000000, A.D. 2023-Jul-15 00:00:00.0000, -4.562815413476683E+08, -5.687195817373091E+07, 1.421685394629309E+07,
$$EOE